{
"type": "FeatureCollection",
"name": "chandela",
"crs": { "type": "name", "properties": { "name": "urn:ogc:def:crs:OGC:1.3:CRS84" } },
"features": [
{ "type": "Feature", "properties": { "id": "chandela", "colorId": null, "name": null, "parent": null }, "geometry": { "type": "MultiPolygon", "coordinates": [ [ [ [ 79.54072671033046, 23.272511272148577 ], [ 79.05698155714596, 23.068522352130962 ], [ 78.544095129673181, 23.016068058412152 ], [ 78.20605634792976, 22.899502961259252 ], [ 78.208970475358583, 23.199658086427984 ], [ 78.351762719370896, 23.695059749327825 ], [ 78.410045267947339, 24.033098531071243 ], [ 78.369247483943838, 24.301198254522923 ], [ 78.281823661079159, 24.551813213401665 ], [ 78.141945544495655, 24.744145623703961 ], [ 77.605746097592302, 25.268688560892024 ], [ 77.605746097592302, 25.863170556371834 ], [ 77.425070197005297, 26.131270279823511 ], [ 77.122000944407688, 26.19829521068645 ], [ 77.296848590137046, 26.279890778693485 ], [ 77.553291803873435, 26.326516817554644 ], [ 77.774765488463942, 26.792777206166257 ], [ 78.275995406221426, 27.020079145614421 ], [ 78.54409512967311, 26.979281361610905 ], [ 78.876305656558884, 26.816090225596838 ], [ 79.097779341149405, 26.664555599298065 ], [ 79.464959397181048, 26.361486346700516 ], [ 79.802998178924469, 26.233264739832322 ], [ 80.047784882945564, 26.023447564957095 ], [ 80.350854135543116, 25.970993271238289 ], [ 80.566499565275976, 25.906882467804191 ], [ 80.414964938977192, 25.767004351220709 ], [ 80.286743332108998, 25.085098532876223 ], [ 80.071097902376138, 24.834483573997481 ], [ 79.937048040650296, 24.508101301969351 ], [ 80.041956628087902, 24.356566675670578 ], [ 80.286743332108998, 24.292455872236481 ], [ 80.420793193834839, 24.135092991080061 ], [ 80.141036960667876, 23.75042817047548 ], [ 79.54072671033046, 23.272511272148577 ] ] ] ] } }
]
}
