{
"type": "FeatureCollection",
"name": "khwaresm",
"crs": { "type": "name", "properties": { "name": "urn:ogc:def:crs:OGC:1.3:CRS84" } },
"features": [
{ "type": "Feature", "properties": { "id": "khwaresm1194", "colorId": null, "name": null, "parent": null }, "geometry": { "type": "MultiPolygon", "coordinates": [ [ [ [ 55.609, 26.954 ], [ 54.014, 36.821 ], [ 54.034, 36.949 ], [ 53.914, 37.343 ], [ 53.875846642450838, 37.515333002146654 ], [ 53.825, 37.745 ], [ 53.807, 38.032 ], [ 53.859, 38.206 ], [ 53.863, 38.381 ], [ 53.827, 38.525 ], [ 53.863, 38.679 ], [ 53.978, 38.902 ], [ 54.594065675658769, 39.097751534480963 ], [ 56.18916903473005, 39.345878723669834 ], [ 57.087153147984992, 39.688530556359218 ], [ 57.417989400236806, 40.196600515174509 ], [ 57.985137261239927, 40.751932795740068 ], [ 58.741334409244089, 42.240695930873258 ], [ 58.605455234211924, 42.825567162532707 ], [ 58.735426619025212, 43.363176072441902 ], [ 58.912660325588689, 45.348193585952828 ], [ 60.643642859691951, 45.69675320886099 ], [ 61.086727126100641, 46.184145901910526 ], [ 61.931541127386517, 46.139837475269665 ], [ 62.008342400230688, 45.9921427198001 ], [ 61.890186595855042, 45.86217133498689 ], [ 62.167852736137817, 45.744015530611236 ], [ 62.740908387359717, 45.903525866518365 ], [ 63.325779619019187, 45.667214257767064 ], [ 63.869296319147175, 45.797185642580281 ], [ 65.039038782466108, 46.222546538332622 ], [ 65.570739902156532, 46.429319195990004 ], [ 67.230828953634415, 46.45885814708393 ], [ 69.180399725832643, 46.872403462398722 ], [ 69.209938676926711, 45.283207893546212 ], [ 69.020889389925671, 44.361592619416143 ], [ 69.387172383490196, 43.877153821475979 ], [ 69.706193055304453, 43.534501988786594 ], [ 69.966135824930888, 42.90827622559565 ], [ 69.599852831366348, 42.022107692778285 ], [ 69.269016579114492, 40.763748376177624 ], [ 69.257200998676907, 40.362018641300402 ], [ 69.452158075896733, 40.302940739112579 ], [ 69.534867138959697, 40.078444710798841 ], [ 70.054752678212552, 39.594005912858677 ], [ 70.20244743368211, 39.345878723669813 ], [ 70.350142189151683, 39.050489212730689 ], [ 70.982275742561399, 38.613312736540784 ], [ 71.035445854530437, 38.412447869102181 ], [ 71.342650945907124, 38.182044050569665 ], [ 71.301296414375656, 37.898470120068104 ], [ 71.496253491595468, 37.945732441818365 ], [ 71.567146974220847, 37.845300008099052 ], [ 71.53170023290815, 37.366769000377666 ], [ 71.437175589407659, 37.207258664470544 ], [ 71.64193542057815, 36.777444443388717 ], [ 70.862107111698862, 36.165988155744728 ], [ 70.348129362664778, 35.971031078524909 ], [ 69.851874984287051, 35.616563665397955 ], [ 69.426514088534717, 35.417175745514044 ], [ 69.30245049394027, 35.284250465591391 ], [ 68.637824094327243, 35.328558892232259 ], [ 68.637824094327243, 35.098155073699743 ], [ 68.779611059578031, 34.681655863275573 ], [ 68.779611059578031, 34.096784631616103 ], [ 68.460590387763773, 33.157445986829686 ], [ 68.150431401277686, 32.528266328529348 ], [ 68.044091177339595, 31.89022498490084 ], [ 68.168154771934027, 31.048364878724332 ], [ 68.168154771934041, 30.339430052470437 ], [ 67.990921065370529, 29.617202698224272 ], [ 67.671900393556271, 29.475415732973492 ], [ 67.50853839480898, 29.072004177840551 ], [ 67.461532841437801, 28.58236299689079 ], [ 67.508538394808966, 28.296412547216125 ], [ 67.289179145743475, 27.900782473008718 ], [ 67.332267569667053, 27.646169058914843 ], [ 67.140328226734752, 27.340632962002196 ], [ 67.203002297896319, 27.035096865089546 ], [ 67.140328226734752, 26.486698742425816 ], [ 67.465449970885388, 25.997057561476055 ], [ 67.418444417514209, 25.718941370696591 ], [ 67.144245356182353, 25.327228425936781 ], [ 67.014980084411619, 25.033443717366925 ], [ 66.68, 24.831 ], [ 66.718, 25.231 ], [ 66.548, 25.366 ], [ 66.587, 25.426 ], [ 66.437, 25.598 ], [ 66.258, 25.612 ], [ 66.094, 25.475 ], [ 66.336, 25.553 ], [ 66.484, 25.401 ], [ 66.36, 25.465 ], [ 66.252, 25.473 ], [ 65.858, 25.418 ], [ 65.672, 25.347 ], [ 65.395, 25.392 ], [ 65.232, 25.371 ], [ 65.155, 25.296 ], [ 64.807, 25.329 ], [ 64.719, 25.314 ], [ 64.669, 25.207 ], [ 64.518, 25.276 ], [ 64.439, 25.235 ], [ 64.361, 25.283 ], [ 64.067, 25.346 ], [ 63.944, 25.335 ], [ 63.805, 25.375 ], [ 63.573, 25.365 ], [ 63.485, 25.284 ], [ 63.5, 25.194 ], [ 63.178, 25.258 ], [ 63.028, 25.22 ], [ 62.771, 25.262 ], [ 62.477, 25.259 ], [ 62.489, 25.214 ], [ 62.343, 25.155 ], [ 62.381, 25.088 ], [ 62.256, 25.099 ], [ 62.318, 25.142 ], [ 62.254, 25.212 ], [ 62.145, 25.218 ], [ 62.059, 25.162 ], [ 62.097, 25.107 ], [ 61.881, 25.103 ], [ 61.847, 25.038 ], [ 61.72, 25.037 ], [ 61.78, 25.191 ], [ 61.588, 25.202 ], [ 61.483, 25.194 ], [ 61.497, 25.125 ], [ 61.412, 25.059 ], [ 61.185, 25.123 ], [ 61.031, 25.21 ], [ 60.728984571369729, 25.25932394421832 ], [ 60.633, 25.275 ], [ 60.55, 25.447 ], [ 60.395, 25.378 ], [ 60.467, 25.29 ], [ 60.271, 25.38 ], [ 60.209, 25.32 ], [ 60.082, 25.366 ], [ 59.904, 25.33 ], [ 59.775, 25.39 ], [ 59.538, 25.4 ], [ 59.454, 25.462 ], [ 59.024, 25.403 ], [ 58.924, 25.513 ], [ 58.814, 25.564 ], [ 58.419, 25.612 ], [ 58.17, 25.544 ], [ 58.046, 25.575 ], [ 57.963, 25.693 ], [ 57.772, 25.636 ], [ 57.735, 25.748 ], [ 57.632, 25.735 ], [ 57.326, 25.777 ], [ 57.254, 25.959 ], [ 57.165, 26.095 ], [ 57.213, 26.166 ], [ 57.133, 26.264 ], [ 57.076, 26.447 ], [ 57.09, 26.619 ], [ 57.025, 26.851 ], [ 56.844, 27.04 ], [ 56.809, 27.14 ], [ 56.583, 27.153 ], [ 56.353, 27.202 ], [ 56.124, 27.161 ], [ 55.939, 27.027 ], [ 55.685, 27.003 ], [ 55.609, 26.954 ] ] ] ] } },
{ "type": "Feature", "properties": { "id": "mongol1218", "colorId": "mongol", "name": "Монгольская империя", "parent": null }, "geometry": { "type": "MultiPolygon", "coordinates": [ [ [ [ 75.177747866519468, 37.933894378715387 ], [ 73.990282032544215, 37.473086741650363 ], [ 73.502889339494629, 37.521826010955316 ], [ 73.299070576946633, 37.335730619063668 ], [ 72.900294737178797, 37.176220283156532 ], [ 72.656598390654025, 36.972401520608535 ], [ 72.368593617488372, 36.932523936631753 ], [ 72.06729631633047, 36.733136016747842 ], [ 71.90778598042337, 36.697689275435152 ], [ 71.64193542057815, 36.777444443388717 ], [ 71.437175589407659, 37.207258664470544 ], [ 71.53170023290815, 37.366769000377666 ], [ 71.567146974220847, 37.845300008099052 ], [ 71.496253491595468, 37.945732441818365 ], [ 71.301296414375656, 37.898470120068104 ], [ 71.342650945907124, 38.182044050569665 ], [ 71.035445854530437, 38.412447869102181 ], [ 70.982275742561399, 38.613312736540784 ], [ 70.350142189151683, 39.050489212730689 ], [ 70.20244743368211, 39.345878723669813 ], [ 70.054752678212552, 39.594005912858677 ], [ 69.534867138959697, 40.078444710798841 ], [ 69.452158075896733, 40.302940739112579 ], [ 69.257200998676907, 40.362018641300402 ], [ 69.269016579114492, 40.763748376177624 ], [ 69.599852831366348, 42.022107692778285 ], [ 69.966135824930888, 42.90827622559565 ], [ 69.706193055304453, 43.534501988786594 ], [ 69.387172383490196, 43.877153821475979 ], [ 69.020889389925671, 44.361592619416143 ], [ 69.209938676926711, 45.283207893546212 ], [ 69.180399725832643, 46.872403462398722 ], [ 71.372189897000979, 46.801509979773328 ], [ 73.640781341013479, 47.191424134212966 ], [ 75.342224924022844, 46.766063238460625 ], [ 76.104329862245777, 46.742432077585491 ], [ 76.281563568809261, 46.630184063428622 ], [ 78.650587446541039, 46.417503615552455 ], [ 80.145258371893007, 46.955112525461665 ], [ 80.239783015393556, 47.215055295088092 ], [ 80.682867281802245, 47.368657840776436 ], [ 81.56903581461961, 48.39070554862581 ], [ 81.917595437527794, 49.005115731379178 ], [ 82.496558878968472, 49.572263592382299 ], [ 82.648994472818941, 49.998144347821281 ], [ 83.210202657562633, 50.189833331321019 ], [ 83.866004675664726, 50.315412441170366 ], [ 84.75203506182396, 50.395643539129665 ], [ 85.610158979127803, 50.639825141614509 ], [ 86.391540107079251, 50.814240571960809 ], [ 86.73610776256848, 50.959285071636877 ], [ 87.198749266824237, 51.233033403909452 ], [ 88.086825802697533, 51.370415409458914 ], [ 88.842426833219562, 51.635366420161446 ], [ 90.059238882371929, 51.777654925909111 ], [ 91.207359928749554, 51.846345928683846 ], [ 92.394732976712746, 51.728589923927167 ], [ 93.160147007631167, 51.718776923530775 ], [ 93.984439040927924, 51.787467926305503 ], [ 94.887235077395815, 51.816906927494671 ], [ 97.360111177286072, 51.473451913621027 ], [ 99.273646254582133, 51.56176891718853 ], [ 99.891865279554693, 51.522516915602971 ], [ 100.897697820184675, 51.630459919963236 ], [ 101.628766349715733, 51.77765492590909 ], [ 102.369647879643182, 51.851252428882006 ], [ 103.081911362969024, 51.978685956701931 ], [ 104.547827725641639, 51.709092142877104 ], [ 105.933240380019299, 52.016129541955387 ], [ 106.401285195687421, 52.529106659927663 ], [ 108.041314229788568, 53.173136326287008 ], [ 109.507230592461141, 55.015360720756789 ], [ 109.934087464350469, 55.588247575134581 ], [ 110.310395496147649, 55.876563181586128 ], [ 110.673598273106123, 55.972044323982431 ], [ 111.059267201216656, 56.091863796793476 ], [ 111.815627623336354, 56.163006608775021 ], [ 112.631897781861582, 56.050675853014674 ], [ 113.410724355133354, 55.818525624443282 ], [ 114.421701156976511, 55.683728717530855 ], [ 115.92693328416523, 55.444089771908772 ], [ 116.144106078635247, 55.339247733199109 ], [ 116.645850121031472, 55.181984675134622 ], [ 117.754180244533615, 54.957323163613914 ], [ 118.503051949602622, 54.934857012461848 ], [ 119.08717187955645, 54.859969841954943 ], [ 120.491306326560832, 54.549188084351314 ], [ 121.272005079095521, 53.976301229973544 ], [ 122.020876784164528, 53.736662284351461 ], [ 123.898633099516545, 53.451599414276686 ], [ 124.224647048137314, 53.335165861197851 ], [ 124.416115557644758, 53.210970071247075 ], [ 124.762828804590711, 53.084186869005649 ], [ 125.683947580058941, 53.166984062306163 ], [ 126.015136353260914, 52.913417657823338 ], [ 126.38772372311324, 52.458033094670498 ], [ 126.770660742128129, 51.516215020877127 ], [ 127.257094252768653, 50.698592737034531 ], [ 127.671080219271232, 49.808522909053977 ], [ 126.379310107666186, 48.524515217071169 ], [ 125.548062515039575, 47.139102562693495 ], [ 124.933987716882996, 45.895975532278939 ], [ 124.410348833783686, 45.119923184529867 ], [ 124.336852226115141, 44.438825586799318 ], [ 123.38496132469335, 44.611072511818506 ], [ 122.365078216027101, 44.54308030457409 ], [ 121.558237356726693, 44.334570869024546 ], [ 120.610879269121156, 44.239381778882368 ], [ 117.977314441854105, 44.280177103229022 ], [ 116.282042074559953, 44.153258316372778 ], [ 115.275757407342596, 43.971945763720996 ], [ 114.713688494122081, 43.46427061629602 ], [ 114.450785292777013, 42.675561012260793 ], [ 113.66207568874178, 42.240410885896523 ], [ 112.374756564914165, 42.068163960877335 ], [ 111.64950635430705, 41.904982663490735 ], [ 111.18072657560073, 40.626761490479765 ], [ 110.223664560157985, 40.846088202352036 ], [ 109.804949928401768, 40.846088202352036 ], [ 109.176877980767458, 40.939135898297856 ], [ 108.911027420922252, 41.002275406261091 ], [ 108.535513505140884, 41.138523818181767 ], [ 108.063628761415657, 41.155139478172096 ], [ 107.797778201570438, 41.228248382129529 ], [ 107.060042897999978, 41.347881134059875 ], [ 106.282430010452728, 41.314649814079225 ], [ 105.916885490665564, 41.447575094001827 ], [ 105.577926026862912, 41.540622789947655 ], [ 105.192442715087353, 41.58050037392443 ], [ 102.427596892697139, 41.540622789947648 ], [ 101.337609597331777, 41.826412141781255 ], [ 100.447010221850277, 41.995891873682581 ], [ 96.804857551970883, 42.002538137678719 ], [ 96.286448960272708, 42.088939569628415 ], [ 95.980720816450727, 42.029123193663239 ], [ 95.495543544733209, 41.956014289705806 ], [ 95.196461664907346, 41.803150217794808 ], [ 94.591651641259489, 41.563884713934115 ], [ 93.867208865681278, 41.052122386232085 ], [ 93.521603137882508, 40.912550842313358 ], [ 92.52466353846296, 40.666639074456526 ], [ 92.072717586726085, 39.922257506889927 ], [ 91.409752753112073, 39.26427737127306 ], [ 90.426105681684788, 38.599650971660026 ], [ 89.78141807406007, 38.350416071805128 ], [ 89.16331552241995, 38.53651146369679 ], [ 88.525274178791449, 38.496633879720022 ], [ 88.02015811508555, 38.217490791882533 ], [ 87.169436323580854, 37.871885064083756 ], [ 86.690905315859467, 37.606034504238544 ], [ 85.886707372327692, 37.300306360416599 ], [ 85.461346476575343, 37.074333384548169 ], [ 84.743549964993264, 36.848360408679738 ], [ 83.919413229473108, 36.662265016788091 ], [ 83.294664413836855, 36.662265016788091 ], [ 82.656623070208354, 36.529339736865488 ], [ 82.151507006502442, 36.34324434497384 ], [ 81.433710494920376, 36.236904121035749 ], [ 80.769084095307349, 36.236904121035749 ], [ 79.776962551841677, 36.36537607562866 ], [ 79.360463341417486, 36.578056523504827 ], [ 78.323646158021162, 36.914800565975433 ], [ 77.366584142578404, 37.180651125820646 ], [ 76.941223246826041, 37.375608203040443 ], [ 76.179118308603108, 37.827554154777303 ], [ 75.177747866519468, 37.933894378715387 ] ] ] ] } }
]
}
