{
"type": "FeatureCollection",
"name": "perm",
"crs": { "type": "name", "properties": { "name": "urn:ogc:def:crs:OGC:1.3:CRS84" } },
"features": [
{ "type": "Feature", "properties": { "id": "mosc_perm1478", "colorId": "russia", "name": null, "parent": "moscow1478" }, "geometry": { "type": "MultiPolygon", "coordinates": [ [ [ [ 57.771182237394903, 58.303263489524795 ], [ 57.927862731422266, 58.51217081489461 ], [ 57.921334377504458, 58.655794601086349 ], [ 57.771182237394903, 58.884286988209581 ], [ 57.78423894523052, 59.093194313579389 ], [ 57.66672857471, 59.295573285031395 ], [ 57.869107546162006, 59.504480610401203 ], [ 58.260808781230395, 59.804784890620304 ], [ 58.313035612572847, 60.307468142291405 ], [ 58.143298410709875, 60.522903821579021 ], [ 58.149826764627683, 60.705697731277603 ], [ 58.064958163696197, 60.881963287058383 ], [ 58.326092320408463, 61.195324275113094 ], [ 58.143298410709875, 61.378118184811676 ], [ 57.908277669668841, 61.443401723989744 ], [ 57.379481002326514, 61.430345016154128 ], [ 57.301140755312836, 61.515213617085614 ], [ 56.981251413340317, 61.515213617085614 ], [ 56.563436762600695, 61.306306291715806 ], [ 56.556908408682887, 61.22143769078432 ], [ 56.458983099915791, 61.071285550674773 ], [ 56.20437729712134, 61.012530365414513 ], [ 55.949771494326882, 61.175739213359677 ], [ 55.884487955148813, 61.306306291715806 ], [ 55.936714786491265, 61.508685263167806 ], [ 55.864902893395396, 61.587025510181483 ], [ 55.70822239936804, 61.639252341523935 ], [ 55.558070259258493, 61.560912094510257 ], [ 54.507005278491647, 61.534798678839032 ], [ 54.245871121779388, 61.65883740327736 ], [ 53.932510133724676, 61.665365757195161 ], [ 53.736659516190478, 61.54132703275684 ], [ 53.377600050711123, 61.528270324921223 ], [ 53.220919556683768, 61.652309049359552 ], [ 52.992427169560543, 61.632723987606127 ], [ 52.783519844190728, 61.547855386674648 ], [ 52.026230789725169, 61.560912094510257 ], [ 51.849965233944403, 61.397703246565108 ], [ 51.81079511043756, 61.267136168208978 ], [ 51.634529554656787, 61.103927320263814 ], [ 51.340753628355493, 60.99947365757891 ], [ 50.439840787698188, 60.986416949743294 ], [ 50.204820046657154, 60.790566332209089 ], [ 50.198291692739346, 60.699169377359794 ], [ 50.263575231917414, 60.594715714674891 ], [ 50.067724614383216, 60.346638265798241 ], [ 50.198291692739346, 60.176901063935276 ], [ 50.348443832848893, 60.072447401250365 ], [ 50.459425849451605, 60.052862339496947 ], [ 50.622634697396769, 59.850483368044948 ], [ 50.524709388629674, 59.746029705360044 ], [ 50.452897495533804, 59.648104396592942 ], [ 50.459425849451605, 59.569764149579264 ], [ 50.616106343478961, 59.484895548647778 ], [ 50.825013668848776, 59.458782132976552 ], [ 51.033920994218583, 59.28904493111358 ], [ 51.510490830218458, 58.988740650894485 ], [ 51.582302723314328, 58.871230280373965 ], [ 51.530075891971876, 58.708021432428801 ], [ 51.686756385999239, 58.583982707990479 ], [ 51.706341447752656, 58.466472337469959 ], [ 51.820587641314276, 58.371811205661778 ], [ 51.996853197095049, 58.319584374319327 ], [ 52.303685831231959, 58.319584374319327 ], [ 52.61051846536887, 58.430566390922039 ], [ 53.047918177861902, 58.502378284017908 ], [ 53.31558068849197, 58.473000691387782 ], [ 53.498374598190559, 58.36201867478507 ], [ 53.619149145669979, 58.342433613031645 ], [ 53.7399236931494, 58.215130711634423 ], [ 53.971680257231519, 58.130262110702937 ], [ 54.503741101532754, 58.022544271059125 ], [ 54.666949949477917, 57.908298077497513 ], [ 54.872593097888817, 57.911562254456413 ], [ 55.071707892381923, 57.898505546620804 ], [ 55.368747995642117, 57.816901122648218 ], [ 55.65925974498451, 57.7940518839359 ], [ 56.256604128463813, 57.950732377963242 ], [ 56.46224727687472, 58.143318818538539 ], [ 56.687475487039045, 58.234715773387826 ], [ 57.062855837312917, 58.231451596428926 ], [ 57.320725817066275, 58.130262110702922 ], [ 57.591652504655251, 58.175960588127566 ], [ 57.771182237394903, 58.303263489524795 ] ] ] ] } }
]
}
