{
"type": "FeatureCollection",
"name": "vyatka",
"crs": { "type": "name", "properties": { "name": "urn:ogc:def:crs:OGC:1.3:CRS84" } },
"features": [
{ "type": "Feature", "properties": { "id": "mosc_vyatka1478", "colorId": "russia", "name": null, "parent": "moscow1478" }, "geometry": { "type": "MultiPolygon", "coordinates": [ [ [ [ 50.248886435602387, 57.254646641477201 ], [ 50.382717690917424, 57.398270427668947 ], [ 50.521445211670802, 57.579432248888082 ], [ 50.576936219972161, 57.669197115257916 ], [ 50.606313812602288, 57.705103061805858 ], [ 50.681389882657072, 57.752433627709969 ], [ 50.80379651861594, 57.793235839696266 ], [ 51.025760551821364, 57.832405963203108 ], [ 51.257517115903497, 57.87157608670995 ], [ 51.521915449574664, 57.936859625888012 ], [ 51.766728721492392, 58.026624492257831 ], [ 51.936465923355364, 58.118021447107118 ], [ 51.978900223821107, 58.199625871079704 ], [ 51.996853197095049, 58.319584374319327 ], [ 51.962579339026597, 58.465656293230317 ], [ 51.872814472656756, 58.761064308011058 ], [ 51.786313783245824, 58.983028341216482 ], [ 51.71450189014994, 59.082585738463038 ], [ 51.631265377697908, 59.149501366120553 ], [ 51.43541476016371, 59.273540090558875 ], [ 51.141638833862423, 59.428588496106784 ], [ 50.880504677150157, 59.559155574462913 ], [ 50.463432822684496, 59.729329169136598 ], [ 49.963270951698348, 59.901894155147758 ], [ 49.421417576520398, 60.071631357010723 ], [ 48.935871253883519, 60.194854037209311 ], [ 48.466645816041179, 60.239736470394242 ], [ 47.895414848233102, 60.272378239983276 ], [ 47.683243345904394, 60.267481974544914 ], [ 47.652233664794814, 60.272378239983269 ], [ 47.611431452808525, 60.256057355188752 ], [ 47.564100886904427, 60.253609222469571 ], [ 47.518402409479776, 60.266665930305187 ], [ 47.448222604863361, 60.258505487907925 ], [ 47.21156977534288, 60.134466763469611 ], [ 47.018983334767597, 59.994923198476506 ], [ 46.943907264712813, 59.898629978188865 ], [ 46.90473714120597, 59.80396884638067 ], [ 46.828028982671746, 59.70441144913412 ], [ 46.779066328288195, 59.648920440832768 ], [ 46.713782789110134, 59.611382405805379 ], [ 46.628914188178648, 59.585268990134153 ], [ 46.532620967890999, 59.546098866627311 ], [ 46.45502351715129, 59.494308428095579 ], [ 46.402053889534876, 59.420428053709536 ], [ 46.382468827781459, 59.355144514531474 ], [ 46.356355412110233, 59.213152816819182 ], [ 46.284543519014363, 59.067896942147982 ], [ 46.215995802877394, 58.911216448120626 ], [ 46.193146564165062, 58.798602343038461 ], [ 46.19967491808287, 58.7365829808193 ], [ 46.242109218548613, 58.671299441641239 ], [ 46.343298704274616, 58.607647990942624 ], [ 46.50650755221978, 58.540732363285102 ], [ 46.638706719055357, 58.491769708901558 ], [ 46.797019301562166, 58.418325727326234 ], [ 46.893312521849808, 58.349778011189251 ], [ 47.032040042603199, 58.209418401956412 ], [ 47.123436997452501, 58.062530438805773 ], [ 47.268692872123694, 57.899321590860609 ], [ 47.462911401178431, 57.714895592682581 ], [ 47.601638921931823, 57.612074018477124 ], [ 47.769744035315334, 57.515780798189475 ], [ 48.003132687876921, 57.439072639655251 ], [ 48.290380260260413, 57.40479878158677 ], [ 49.75273153784908, 57.241589933641606 ], [ 50.137904418999675, 57.215476517970366 ], [ 50.248886435602387, 57.254646641477201 ] ] ] ] } }
]
}
