{
"type": "FeatureCollection",
"name": "xi_xia",
"crs": { "type": "name", "properties": { "name": "urn:ogc:def:crs:OGC:1.3:CRS84" } },
"features": [
{ "type": "Feature", "properties": { "id": "xi_xia", "colorId": "xi_xia", "name": "Си-Ся", "parent": null }, "geometry": { "type": "MultiPolygon", "coordinates": [ [ [ [ 104.828559761299104, 38.350416071805142 ], [ 104.31679743359706, 38.197551999894145 ], [ 103.51924575406143, 38.377001127789661 ], [ 102.070360202905022, 38.430171239758707 ], [ 101.153175771439052, 38.676083007615517 ], [ 100.72615330968776, 38.935287303464555 ], [ 100.054880646078601, 39.393879519197547 ], [ 99.370315454477179, 39.579974911089195 ], [ 98.453131023011196, 39.613206231069846 ], [ 97.655579343475566, 39.985397014853142 ], [ 96.77162623199024, 40.689900998442951 ], [ 96.658639744056018, 41.26812596610629 ], [ 96.731748648013451, 41.839704669773496 ], [ 96.804857551970883, 42.002538137678719 ], [ 100.447010221850277, 41.995891873682581 ], [ 101.337609597331777, 41.826412141781255 ], [ 102.427596892697139, 41.540622789947648 ], [ 105.192442715087353, 41.58050037392443 ], [ 105.577926026862912, 41.540622789947655 ], [ 105.916885490665564, 41.447575094001827 ], [ 106.282430010452728, 41.314649814079225 ], [ 107.060042897999978, 41.347881134059875 ], [ 107.797778201570438, 41.228248382129529 ], [ 108.063628761415657, 41.155139478172096 ], [ 108.535513505140884, 41.138523818181767 ], [ 108.911027420922252, 41.002275406261091 ], [ 109.176877980767458, 40.939135898297856 ], [ 109.804949928401768, 40.846088202352036 ], [ 110.223664560157985, 40.846088202352036 ], [ 111.18072657560073, 40.626761490479765 ], [ 111.439930871449803, 40.340972138646165 ], [ 111.506393511411105, 40.114999162777735 ], [ 111.506393511411105, 39.706253927015723 ], [ 111.421653645460381, 39.560036119100886 ], [ 111.35519100549908, 39.513512271127972 ], [ 111.102632973646124, 39.121382695356282 ], [ 111.049462861677071, 38.902055983483983 ], [ 110.830136149804773, 38.496633879720036 ], [ 110.730442189862828, 38.164320679913523 ], [ 110.457945366021463, 37.991517816014124 ], [ 109.979414358300076, 37.925055176052815 ], [ 109.500883350578704, 37.659204616207603 ], [ 109.068876190830224, 37.486401752308218 ], [ 108.610283975097232, 37.419939112346917 ], [ 108.317848359267501, 37.320245152404958 ], [ 107.932365047491942, 37.247136248447525 ], [ 107.453834039770555, 37.247136248447525 ], [ 107.154752159944707, 37.36012273638174 ], [ 106.682867416219452, 37.433231640339173 ], [ 106.30403036844001, 37.566156920261783 ], [ 106.184397616509685, 37.778837368137935 ], [ 105.805560568730257, 38.044687927983148 ], [ 105.406784728962435, 38.230783319874796 ], [ 104.828559761299104, 38.350416071805142 ] ] ] ] } }
]
}
